{
    "links": {
        "self": "http://www.neowsapp.com/rest/v1/neo/3430308?api_key=iIulBulltgU6a56xZRHN4H3l9WmuAYTsLGpBGhQ2"
    },
    "id": "3430308",
    "neo_reference_id": "3430308",
    "name": "(2008 TB4)",
    "designation": "2008 TB4",
    "nasa_jpl_url": "http://ssd.jpl.nasa.gov/sbdb.cgi?sstr=3430308",
    "absolute_magnitude_h": 21.0,
    "estimated_diameter": {
        "kilometers": {
            "estimated_diameter_min": 0.1677084622,
            "estimated_diameter_max": 0.3750075218
        },
        "meters": {
            "estimated_diameter_min": 167.7084621628,
            "estimated_diameter_max": 375.0075217981
        },
        "miles": {
            "estimated_diameter_min": 0.1042091748,
            "estimated_diameter_max": 0.2330187988
        },
        "feet": {
            "estimated_diameter_min": 550.2246310023,
            "estimated_diameter_max": 1230.3396778159
        }
    },
    "is_potentially_hazardous_asteroid": false,
    "close_approach_data": [
        {
            "close_approach_date": "2008-10-08",
            "close_approach_date_full": "2008-Oct-08 03:20",
            "epoch_date_close_approach": 1223436000000,
            "relative_velocity": {
                "kilometers_per_second": "24.6513053213",
                "kilometers_per_hour": "88744.6991566361",
                "miles_per_hour": "55142.5048731887"
            },
            "miss_distance": {
                "astronomical": "0.113686693",
                "lunar": "44.224123577",
                "kilometers": "17007287.12014391",
                "miles": "10567838.179289558"
            },
            "orbiting_body": "Earth"
        }
    ],
    "orbital_data": {
        "orbit_id": "11",
        "orbit_determination_date": "2017-04-06 09:02:40",
        "first_observation_date": "2008-10-07",
        "last_observation_date": "2008-10-17",
        "data_arc_in_days": 10,
        "observations_used": 33,
        "orbit_uncertainty": "9",
        "minimum_orbit_intersection": ".0882685",
        "jupiter_tisserand_invariant": "3.646",
        "epoch_osculation": "2454749.5",
        "eccentricity": ".4465869870981628",
        "semi_major_axis": "1.820730676020307",
        "inclination": "41.87526683756647",
        "ascending_node_longitude": "194.412297797687",
        "orbital_period": "897.3605868704693",
        "perihelion_distance": "1.007616049099197",
        "perihelion_argument": "138.3167961269112",
        "aphelion_distance": "2.633845302941417",
        "perihelion_time": "2454714.048219199372",
        "mean_anomaly": "14.2224221510949",
        "mean_motion": ".4011765228685764",
        "equinox": "J2000",
        "orbit_class": {
            "orbit_class_type": "APO",
            "orbit_class_description": "Near-Earth asteroid orbits which cross the Earth’s orbit similar to that of 1862 Apollo",
            "orbit_class_range": "a (semi-major axis) > 1.0 AU; q (perihelion) < 1.017 AU"
        }
    },
    "is_sentry_object": false
}